{"epoch":1784799577,"count":18318,"objects":[{"id":"66737","name":"FLOCK 4H 34","type":"PAYLOAD","l1":"1 66737U 25276BZ  26203.71776009  .00006611  00000-0  30195-3 0  9996","l2":"2 66737  97.4222 277.0186 0003331 151.7648 208.3769 15.20908030 35089"},{"id":"66738","name":"FLOCK 4H 35","type":"PAYLOAD","l1":"1 66738U 25276CA  26203.16664306  .00005953  00000-0  27142-3 0  9998","l2":"2 66738  97.4180 276.4112 0003081 137.4617 222.6858 15.21011581 35045"},{"id":"66739","name":"FLOCK 4H 36","type":"PAYLOAD","l1":"1 66739U 25276CB  26203.66683898  .00007147  00000-0  32731-3 0  9998","l2":"2 66739  97.4230 276.9610 0003116 163.3247 196.8092 15.20789407 35822"}]}