{"fetched_at":"2026-07-23T07:05:20.500Z","source":"https://celestrak.org/NORAD/elements/gp.php?GROUP=planet&FORMAT=JSON","constellation":"superdove","records":[{"OBJECT_NAME":"FLOCK 4H-34","OBJECT_ID":"2025-276BZ","EPOCH":"2026-07-22T17:13:34.471776","CLASSIFICATION_TYPE":"U","MEAN_MOTION":15.2090803,"ECCENTRICITY":0.00033314,"INCLINATION":97.4222,"RA_OF_ASC_NODE":277.0186,"ARG_OF_PERICENTER":151.7648,"MEAN_ANOMALY":208.3769,"EPHEMERIS_TYPE":0,"NORAD_CAT_ID":66737,"ELEMENT_SET_NO":999,"REV_AT_EPOCH":3508,"BSTAR":0.00030195313,"MEAN_MOTION_DOT":0.00006611,"MEAN_MOTION_DDOT":0},{"OBJECT_NAME":"FLOCK 4H-35","OBJECT_ID":"2025-276CA","EPOCH":"2026-07-22T03:59:57.960384","CLASSIFICATION_TYPE":"U","MEAN_MOTION":15.21011581,"ECCENTRICITY":0.00030812,"INCLINATION":97.418,"RA_OF_ASC_NODE":276.4112,"ARG_OF_PERICENTER":137.4617,"MEAN_ANOMALY":222.6858,"EPHEMERIS_TYPE":0,"NORAD_CAT_ID":66738,"ELEMENT_SET_NO":999,"REV_AT_EPOCH":3504,"BSTAR":0.0002714205,"MEAN_MOTION_DOT":0.00005953,"MEAN_MOTION_DDOT":0},{"OBJECT_NAME":"FLOCK 4H-36","OBJECT_ID":"2025-276CB","EPOCH":"2026-07-22T16:00:14.887872","CLASSIFICATION_TYPE":"U","MEAN_MOTION":15.20789407,"ECCENTRICITY":0.00031159,"INCLINATION":97.423,"RA_OF_ASC_NODE":276.961,"ARG_OF_PERICENTER":163.3247,"MEAN_ANOMALY":196.8092,"EPHEMERIS_TYPE":0,"NORAD_CAT_ID":66739,"ELEMENT_SET_NO":999,"REV_AT_EPOCH":3582,"BSTAR":0.00032730513,"MEAN_MOTION_DOT":0.00007147,"MEAN_MOTION_DDOT":0}]}
